
# C41 (GNSS)
1 44864U 19090A   25248.07063811  .00000027  00000+0  00000+0 0  9999
2 44864  56.3051  72.2322 0015481 287.9700 249.9106  1.86231646 38928

# C42 (GNSS)
1 44865U 19090B   25247.93748103  .00000027  00000+0  00000+0 0  9998
2 44865  56.3069  72.2708 0013050 303.7481 234.4811  1.86231597 38904

# C60 (GNSS)
1 45344U 20017A   25249.10841126 -.00000142  00000+0  00000+0 0  9991
2 45344   2.8149  41.8751 0001025 317.8543 104.8084  1.00271898 20419

# C61 (GNSS)
1 45807U 20040A   25249.25720692 -.00000355  00000+0  00000+0 0  9997
2 45807   1.7491  65.4605 0003906 335.3054 147.8862  1.00265793 19228

# C62 (GNSS)
1 56564U 23066A   25249.19567332 -.00000114  00000+0  00000+0 0  9996
2 56564   1.0388 295.5802 0006278 208.1181  72.3470  1.00272060  8541

# C50 (GNSS)
1 58654U 23207A   25247.63808515  .00000022  00000+0  00000+0 0  9990
2 58654  55.4952  71.9543 0000737  38.5572 321.5157  1.86229928 11526

# E24 (GNSS)
1 40889U 15045A   25248.74278695  .00000052  00000+0  00000+0 0  9998
2 40889  55.0422 229.4613 0003455  13.2433 346.7445  1.70473198 62167

# E30 (GNSS)
1 40890U 15045B   25247.20370994  .00000059  00000+0  00000+0 0  9992
2 40890  55.0414 229.4990 0002023 338.5244  21.4552  1.70473260 62167

# E07 (GNSS)
1 41859U 16069A   25248.25265261  .00000029  00000+0  00000+0 0  9998
2 41859  55.3186 108.9779 0002955 341.8093  18.2871  1.70473881 54541

# E08 (GNSS)
1 41175U 15079B   25248.17936388  .00000029  00000+0  00000+0 0  9995
2 41175  55.6485 109.0840 0003142   5.3715 354.7386  1.70473818 60333

# E09 (GNSS)
1 41174U 15079A   25246.78608401  .00000020  00000+0  00000+0 0  9992
2 41174  55.6496 109.1253 0003745 351.1783   8.9144  1.70473980 59898

# E01 (GNSS)
1 41550U 16030B   25246.80053065  .00000061  00000+0  00000+0 0  9996
2 41550  55.1909 229.5676 0004173 245.7837 114.1630  1.70473700 57786

# E02 (GNSS)
1 41549U 16030A   25247.12942355  .00000060  00000+0  00000+0 0  9998
2 41549  55.1912 229.5605 0003387 320.2782  39.6856  1.70473308 57790

# E03 (GNSS)
1 41860U 16069B   25247.51984839  .00000024  00000+0  00000+0 0  9992
2 41860  55.3158 108.9938 0003334  29.4415 330.6804  1.70474057 54787

# E04 (GNSS)
1 41861U 16069C   25247.30101296  .00000022  00000+0  00000+0 0  9996
2 41861  55.3180 109.0073 0002272 311.6760  48.4063  1.70474412 54645

# E05 (GNSS)
1 41862U 16069D   25248.03347573  .00000027  00000+0  00000+0 0  9993
2 41862  55.3169 108.9800 0001334 347.0229  13.0795  1.70474009 54787

# E21 (GNSS)
1 43055U 17079A   25247.34978994  .00000059  00000+0  00000+0 0  9996
2 43055  55.1686 229.3700 0003392 268.8464  91.1018  1.70474019 48115

# E25 (GNSS)
1 43056U 17079B   25246.46798405  .00000062  00000+0  00000+0 0  9990
2 43056  55.1691 229.3942 0004733 278.0671  81.8705  1.70474211 48116

# E27 (GNSS)
1 43057U 17079C   25247.27522067  .00000059  00000+0  00000+0 0  9996
2 43057  55.1672 229.3701 0004059 290.2814  69.6625  1.70474137 48117

# E31 (GNSS)
1 43058U 17079D   25248.66844883  .00000053  00000+0  00000+0 0  9998
2 43058  55.1664 229.3296 0005172 274.9382  84.9818  1.70474046 48162

# E36 (GNSS)
1 43566U 18060C   25247.83854546 -.00000083  00000+0  00000+0 0  9992
2 43566  57.2550 349.4948 0003105 267.5488  92.4428  1.70476187 44323

# E13 (GNSS)
1 43567U 18060D   25243.95332990 -.00000092  00000+0  00000+0 0  9996
2 43567  57.2560 349.6000 0003180 263.0153  96.9725  1.70476312 44249

# E15 (GNSS)
1 43564U 18060A   25243.29200639 -.00000094  00000+0  00000+0 0  9996
2 43564  57.2536 349.6127 0004252 265.1779  94.7974  1.70476398 44221

# E33 (GNSS)
1 43565U 18060B   25246.44411486 -.00000086  00000+0  00000+0 0  9992
2 43565  57.2561 349.5307 0004351 233.9087 126.0763  1.70476035 44328

# E34 (GNSS)
1 49809U 21116A   25246.15763390 -.00000086  00000+0  00000+0 0  9997
2 49809  57.2443 349.4321 0003569 206.4480 157.0617  1.70476454 23291

# E10 (GNSS)
1 49810U 21116B   25240.69587015 -.00000102  00000+0  00000+0 0  9999
2 49810  57.2470 349.5773 0002886 200.1648 163.8976  1.70476645 23221

# R01 (GNSS)
1 36111U 09070A   25244.48415594  .00000029  00000+0  00000+0 0  9994
2 36111  64.8399  80.8329 0002044 350.0889 181.8712  2.13103808122274

# R02 (GNSS)
1 39155U 13019A   25245.25487566  .00000039  00000+0  00000+0 0  9998
2 39155  65.2576  83.2788 0022329 227.4130 132.4739  2.13104640 96149

# R03 (GNSS)
1 37867U 11064A   25247.43903326  .00000057  00000+0  00000+0 0  9993
2 37867  65.1054  82.5298 0021797 231.4979 316.5302  2.13101557107675

# R04 (GNSS)
1 44850U 19088A   25249.12626734  .00000063  00000+0  00000+0 0  9997
2 44850  65.4054  83.2218 0011539 248.1720 111.7857  2.13102003 44666

# R05 (GNSS)
1 43508U 18053A   25247.77402918  .00000060  00000+0  00000+0 0  9999
2 43508  65.4175  83.4384 0006924 215.5751 144.4601  2.13102250 56194

# R06 (GNSS)
1 36112U 09070B   25247.83992508  .00000057  00000+0  00000+0 0  9993
2 36112  64.8279  80.5678 0005744 134.1683 222.3068  2.13101177122349

# R07 (GNSS)
1 37868U 11064B   25247.88842205  .00000059  00000+0  00000+0 0  9993
2 37868  65.1126  82.5914 0018895 231.7907 121.4125  2.13103037107671

# R08 (GNSS)
1 37869U 11064C   25244.43148515  .00000029  00000+0  00000+0 0  9992
2 37869  65.1173  82.7273 0023702 248.3071 289.2672  2.13101912107617

# R09 (GNSS)
1 40315U 14075A   25248.92943082  .00000024  00000+0  00000+0 0  9992
2 40315  63.6172 200.2105 0021407 210.5318 149.3226  2.13101326 83797

# R10 (GNSS)
1 32395U 07065C   25247.81203878  .00000027  00000+0  00000+0 0  9994
2 32395  64.3266 201.6089 0016960 356.4684 185.6085  2.13100009137645

# R11 (GNSS)
1 46805U 20075A   25247.63220769  .00000029  00000+0  00000+0 0  9991
2 46805  64.5990 202.0035 0008522 239.4171 120.4808  2.13099887 37824

# R12 (GNSS)
1 44299U 19030A   25248.21288990  .00000027  00000+0  00000+0 0  9998
2 44299  64.3689 202.2099 0012550 278.1739 117.9599  2.13102095 48859

# R13 (GNSS)
1 32393U 07065A   25249.16625435  .00000026  00000+0  00000+0 0  9998
2 32393  64.3180 201.4940 0001069  31.1923 336.2706  2.13101214137721

# R14 (GNSS)
1 42939U 17055A   25248.75190215  .00000026  00000+0  00000+0 0  9992
2 42939  64.0792 201.5639 0009644 239.3994 120.4843  2.13101909 61910

# R15 (GNSS)
1 43687U 18086A   25249.27930457  .00000027  00000+0  00000+0 0  9997
2 43687  64.2952 202.1787 0010896 257.8640 101.9918  2.13101917 53238

# R16 (GNSS)
1 54377U 22161A   25248.86958146  .00000027  00000+0  00000+0 0  9993
2 54377  64.7407 202.1471 0011087 222.3695 137.5237  2.13102011 21573

# R17 (GNSS)
1 41330U 16008A   25248.44419986 -.00000032  00000+0  00000+0 0  9996
2 41330  65.1870 322.7718 0013131 209.4016 150.5945  2.13102588 74551

# R18 (GNSS)
1 39620U 14012A   25247.08992209 -.00000041  00000+0  00000+0 0  9991
2 39620  65.4608 323.6514 0011634 309.4931  50.4687  2.13103241 89148

# R19 (GNSS)
1 54031U 22130A   25248.55594479 -.00000037  00000+0  00000+0 0  9999
2 54031  64.4344 324.5974 0013119 186.4797 173.5709  2.13101626 22627

# R20 (GNSS)
1 32276U 07052B   25248.61760133 -.00000036  00000+0  00000+0 0  9990
2 32276  65.7490 325.6245 0008710 309.8722  50.4287  2.13103110139020

# R21 (GNSS)
1 40001U 14032A   25247.73268887 -.00000037  00000+0  00000+0 0  9993
2 40001  65.3963 323.3996 0009089 203.2314 156.7943  2.13105943 87373

# R22 (GNSS)
1 52984U 22075A   25246.39070022 -.00000048  00000+0  00000+0 0  9997
2 52984  64.4632 324.5805 0012448 271.1612  88.7573  2.13102219 24602

# R23 (GNSS)
1 36402U 10007C   25247.36026411 -.00000040  00000+0  00000+0 0  9999
2 36402  65.5819 324.1303 0002124 210.0010 136.4523  2.13106255120631

# R24 (GNSS)
1 45358U 20018A   25248.85313396 -.00000031  00000+0  00000+0 0  9998
2 45358  64.5235 322.4040 0011395 236.5723 123.3901  2.13102511 42601

# R25 (GNSS)
1 32275U 07052A   25249.01454647 -.00000035  00000+0  00000+0 0  9993
2 32275  65.7329 325.4889 0005033 225.2300 134.7975  2.13104137139008
